{"type": "FeatureCollection", "crs": "EPSG:32632", "features": [{"type": "Feature", "properties": {"file": "west.las"}, "geometry": {"type": "Polygon", "coordinates": [[[500100.0, 6000000.0], [500100.0, 6000100.0], [500000.0, 6000100.0], [500000.0, 6000000.0], [500100.0, 6000000.0]]]}}, {"type": "Feature", "properties": {"file": "east.las"}, "geometry": {"type": "Polygon", "coordinates": [[[500210.0, 6000010.0], [500210.0, 6000110.0], [500110.0, 6000110.0], [500110.0, 6000010.0], [500210.0, 6000010.0]]]}}]}